[{"OBJECT_NAME":"TIANHUI 5A","OBJECT_ID":"2023-168A","EPOCH":"2026-03-09T14:12:49.556736","MEAN_MOTION":14.8757926,"ECCENTRICITY":0.0001554,"INCLINATION":97.8216,"RA_OF_ASC_NODE":77.385,"ARG_OF_PERICENTER":89.7041,"MEAN_ANOMALY":270.4353,"EPHEMERIS_TYPE":0,"CLASSIFICATION_TYPE":"U","NORAD_CAT_ID":58199,"ELEMENT_SET_NO":999,"REV_AT_EPOCH":12779,"BSTAR":7.8424e-5,"MEAN_MOTION_DOT":6.58e-6,"MEAN_MOTION_DDOT":0},{"OBJECT_NAME":"SL-14 R\/B","OBJECT_ID":"1986-018B","EPOCH":"2026-03-09T17:21:36.966528","MEAN_MOTION":14.86680008,"ECCENTRICITY":0.00180747,"INCLINATION":82.5187,"RA_OF_ASC_NODE":182.8859,"ARG_OF_PERICENTER":65.0322,"MEAN_ANOMALY":295.277,"EPHEMERIS_TYPE":0,"CLASSIFICATION_TYPE":"U","NORAD_CAT_ID":16612,"ELEMENT_SET_NO":999,"REV_AT_EPOCH":4335,"BSTAR":7.8697814e-5,"MEAN_MOTION_DOT":7.25e-6,"MEAN_MOTION_DDOT":0}]
